NORAD_CAT_ID,OBJECT_NAME,OBJECT_TYPE,EPOCH,MEAN_MOTION,ECCENTRICITY,INCLINATION,RA_OF_ASC_NODE,ARG_OF_PERICENTER,MEAN_ANOMALY,BSTAR,MEAN_MOTION_DOT,MEAN_MOTION_DDOT,TLE_LINE0,TLE_LINE1,TLE_LINE2,SEMIMAJOR_AXIS,PERIOD,APOGEE,PERIGEE,DECAYED
55428.0,STARLINK-5064,PAYLOAD,2024-01-07 22:58:10,14.98326909,0.000286,69.9988,280.8819,267.1688,92.9143,4.4453e-05,4.37e-06,0.0,0 STARLINK-5064,1 55428U 23014AP  24007.95707048  .00000437  00000-0  44453-4 0  9995,2 55428  69.9988 280.8819 0002860 267.1688  92.9143 14.98326909 52966,6950.202,96.107,574.055,570.08,0.0
55428.0,STARLINK-5064,PAYLOAD,2024-01-08 03:46:34,14.98330602,0.0002824,69.9989,280.3773,267.3511,92.7325,8.3249e-05,9e-06,0.0,0 STARLINK-5064,1 55428U 23014AP  24008.15734714  .00000900  00000-0  83249-4 0  9999,2 55428  69.9989 280.3773 0002824 267.3511  92.7325 14.98330602 52996,6950.191,96.107,574.019,570.093,0.0
55428.0,STARLINK-5064,PAYLOAD,2024-01-08 19:47:55,14.983297,0.0002755,69.9989,278.6937,268.1093,91.975,-1.3225e-05,-2.51e-06,0.0,0 STARLINK-5064,1 55428U 23014AP  24008.82495042 -.00000251  00000-0 -13225-4 0  9999,2 55428  69.9989 278.6937 0002755 268.1093  91.9750 14.98329700 52153,6950.194,96.107,573.974,570.144,0.0
55428.0,STARLINK-5064,PAYLOAD,2024-01-08 21:24:03,14.98329664,0.0002757,69.9989,278.5253,268.1063,91.9781,-1.3319e-05,-2.52e-06,0.0,0 STARLINK-5064,1 55428U 23014AP  24008.89171041 -.00000252  00000-0 -13319-4 0  9991,2 55428  69.9989 278.5253 0002757 268.1063  91.9781 14.98329664 53101,6950.194,96.107,573.975,570.143,0.0
55428.0,STARLINK-5064,PAYLOAD,2024-01-09 03:48:35,14.98331846,0.0002767,69.9989,277.8519,269.6334,90.4508,1.1289e-05,4.2e-07,0.0,0 STARLINK-5064,1 55428U 23014AP  24009.15874832  .00000042  00000-0  11289-4 0  9998,2 55428  69.9989 277.8519 0002767 269.6334  90.4508 14.98331846 53146,6950.187,96.107,573.975,570.129,0.0
55428.0,STARLINK-5064,PAYLOAD,2024-01-09 19:49:56,14.98332246,0.0002745,69.9989,276.1686,269.9605,90.1239,-3.2925e-06,-1.32e-06,0.0,0 STARLINK-5064,1 55428U 23014AP  24009.82634785 -.00000132  00000-0 -32925-5 0  9996,2 55428  69.9989 276.1686 0002745 269.9605  90.1239 14.98332246 52303,6950.186,96.107,573.959,570.143,0.0
55428.0,STARLINK-5064,PAYLOAD,2024-01-09 21:26:04,14.98332302,0.0002747,69.9989,276.0003,269.9927,90.0917,-2.4741e-06,-1.23e-06,0.0,0 STARLINK-5064,1 55428U 23014AP  24009.89310768 -.00000123  00000-0 -24741-5 0  9992,2 55428  69.9989 276.0003 0002747 269.9927  90.0917 14.98332302 53254,6950.186,96.107,573.96,570.142,0.0
55428.0,STARLINK-5064,PAYLOAD,2024-01-10 03:50:36,14.98334373,0.0002713,69.999,275.3271,270.3279,89.7569,2.3778e-05,1.91e-06,0.0,0 STARLINK-5064,1 55428U 23014AP  24010.16014519  .00000191  00000-0  23778-4 0  9990,2 55428  69.9990 275.3271 0002713 270.3279  89.7569 14.98334373 53296,6950.179,96.107,573.93,570.159,0.0
55428.0,STARLINK-5064,PAYLOAD,2024-01-11 03:52:37,14.98327161,0.0002499,69.9993,272.8019,266.2735,93.8138,0.00016558,1.883e-05,0.0,0 STARLINK-5064,1 55428U 23014AP  24011.16154543  .00001883  00000-0  16558-3 0  9999,2 55428  69.9993 272.8019 0002499 266.2735  93.8138 14.98327161 52501,6950.202,96.107,573.804,570.33,0.0
55428.0,STARLINK-5064,PAYLOAD,2024-01-11 21:30:06,14.98326165,0.0002276,70.0,270.9513,242.0288,118.0641,-2.4577e-05,-3.86e-06,0.0,0 STARLINK-5064,1 55428U 23014AP  24011.89591052 -.00000386  00000-0 -24577-4 0  9999,2 55428  70.0000 270.9513 0002276 242.0288 118.0641 14.98326165 53557,6950.205,96.107,573.652,570.488,0.0
55428.0,STARLINK-5064,PAYLOAD,2024-01-12 03:54:39,14.98313599,0.0002446,69.9999,270.2779,257.4227,102.6658,0.00012102,1.351e-05,0.0,0 STARLINK-5064,1 55428U 23014AP  24012.16295599  .00001351  00000-0  12102-3 0  9998,2 55428  69.9999 270.2779 0002446 257.4227 102.6658 14.98313599 52654,6950.244,96.108,573.809,570.409,0.0
55428.0,STARLINK-5064,PAYLOAD,2024-01-12 19:55:59,14.98327762,0.0002791,70.0,268.5965,264.935,95.1491,1.8505e-05,1.28e-06,0.0,0 STARLINK-5064,1 55428U 23014AP  24012.83054950  .00000128  00000-0  18505-4 0  9991,2 55428  70.0000 268.5965 0002791 264.9350  95.1491 14.98327762 52759,6950.2,96.107,574.005,570.125,0.0
55428.0,STARLINK-5064,PAYLOAD,2024-01-12 21:32:07,14.98327307,0.0002578,70.0,268.428,260.643,99.4438,1.5e-05,8.6e-07,0.0,0 STARLINK-5064,1 55428U 23014AP  24012.89731000  .00000086  00000-0  15000-4 0  9995,2 55428  70.0000 268.4280 0002578 260.6430  99.4438 14.98327307 53702,6950.201,96.107,573.858,570.274,0.0
55428.0,STARLINK-5064,PAYLOAD,2024-01-13 02:20:31,14.9832755,0.000257,69.9999,267.9228,260.3628,99.7241,1.2092e-05,5.1e-07,0.0,0 STARLINK-5064,1 55428U 23014AP  24013.09759023  .00000051  00000-0  12092-4 0  9993,2 55428  69.9999 267.9228 0002570 260.3628  99.7241 14.98327550 53738,6950.2,96.107,573.852,570.279,0.0
55428.0,STARLINK-5064,PAYLOAD,2024-01-13 19:58:00,14.98328774,0.0002827,69.9985,266.0679,269.6596,90.4239,4.5566e-05,4.51e-06,0.0,0 STARLINK-5064,1 55428U 23014AP  24013.83194896  .00000451  00000-0  45566-4 0  9992,2 55428  69.9985 266.0679 0002827 269.6596  90.4239 14.98328774 52906,6950.197,96.107,574.027,570.097,0.0
55428.0,STARLINK-5064,PAYLOAD,2024-01-14 02:22:32,14.98331867,0.0002795,69.9986,265.3947,270.4565,89.6274,7.9719e-05,8.58e-06,0.0,0 STARLINK-5064,1 55428U 23014AP  24014.09898603  .00000858  00000-0  79719-4 0  9996,2 55428  69.9986 265.3947 0002795 270.4565  89.6274 14.98331867 53881,6950.187,96.107,573.995,570.11,0.0
55428.0,STARLINK-5064,PAYLOAD,2024-01-14 20:00:00,14.98334147,0.0002823,69.9986,263.5428,271.2846,88.7989,4.1777e-05,4.06e-06,0.0,0 STARLINK-5064,1 55428U 23014AP  24014.83334432  .00000406  00000-0  41777-4 0  9995,2 55428  69.9986 263.5428 0002823 271.2846  88.7989 14.98334147 53054,6950.18,96.107,574.007,570.083,0.0
55428.0,STARLINK-5064,PAYLOAD,2024-01-14 21:36:09,14.98333853,0.0002826,69.9985,263.3743,271.0352,89.0483,3.7776e-05,3.58e-06,0.0,0 STARLINK-5064,1 55428U 23014AP  24014.90010441  .00000358  00000-0  37776-4 0  9994,2 55428  69.9985 263.3743 0002826 271.0352  89.0483 14.98333853 54006,6950.181,96.107,574.01,570.082,0.0
55428.0,STARLINK-5064,PAYLOAD,2024-01-15 02:24:32,14.9833903,0.000275,69.9985,262.8691,270.1243,89.9601,9.8436e-05,1.082e-05,0.0,0 STARLINK-5064,1 55428U 23014AP  24015.10037843  .00001082  00000-0  98436-4 0  9997,2 55428  69.9985 262.8691 0002750 270.1243  89.9601 14.98339030 53099,6950.165,96.106,573.941,570.119,0.0
55428.0,STARLINK-5064,PAYLOAD,2024-01-15 18:25:53,14.98330169,0.0002522,70.0,261.1893,251.2653,108.8232,-2.0576e-05,-3.38e-06,0.0,0 STARLINK-5064,1 55428U 23014AP  24015.76798543 -.00000338  00000-0 -20576-4 0  9995,2 55428  70.0000 261.1893 0002522 251.2653 108.8232 14.98330169 53194,6950.192,96.107,573.81,570.305,0.0
55428.0,STARLINK-5064,PAYLOAD,2024-01-15 20:02:02,14.98329794,0.0002608,69.9998,261.0207,252.4559,107.6315,-3.0636e-05,-4.58e-06,0.0,0 STARLINK-5064,1 55428U 23014AP  24015.83474603 -.00000458  00000-0 -30636-4 0  9992,2 55428  69.9998 261.0207 0002608 252.4559 107.6315 14.98329794 54145,6950.194,96.107,573.871,570.246,0.0
55428.0,STARLINK-5064,PAYLOAD,2024-01-16 02:26:34,14.98329404,0.0002634,69.9996,260.347,251.6247,108.4626,-2.9274e-05,-4.42e-06,0.0,0 STARLINK-5064,1 55428U 23014AP  24016.10178578 -.00000442  00000-0 -29274-4 0  9994,2 55428  69.9996 260.3470 0002634 251.6247 108.4626 14.98329404 54187,6950.195,96.107,573.89,570.229,0.0
55428.0,STARLINK-5064,PAYLOAD,2024-01-16 20:04:02,14.9833044,0.0002731,69.9995,258.4948,258.6458,101.4394,-4.758e-05,-6.61e-06,0.0,0 STARLINK-5064,1 55428U 23014AP  24016.83614475 -.00000661  00000-0 -47580-4 0  9998,2 55428  69.9995 258.4948 0002731 258.6458 101.4394 14.98330440 53358,6950.192,96.107,573.955,570.158,0.0
55428.0,STARLINK-5064,PAYLOAD,2024-01-16 21:40:10,14.98330274,0.0002713,69.9996,258.3265,258.6531,101.4323,-4.933e-05,-6.81e-06,0.0,0 STARLINK-5064,1 55428U 23014AP  24016.90290494 -.00000681  00000-0 -49330-4 0  9994,2 55428  69.9996 258.3265 0002713 258.6531 101.4323 14.98330274 54305,6950.192,96.107,573.943,570.171,0.0
55428.0,STARLINK-5064,PAYLOAD,2024-01-17 02:28:35,14.9833205,0.0002709,69.9994,257.8212,262.2147,97.8704,-1.9355e-05,-3.24e-06,0.0,0 STARLINK-5064,1 55428U 23014AP  24017.10318310 -.00000324  00000-0 -19355-4 0  9993,2 55428  69.9994 257.8212 0002709 262.2147  97.8704 14.98332050 54336,6950.187,96.107,573.934,570.169,0.0
55428.0,STARLINK-5064,PAYLOAD,2024-01-17 20:06:04,14.98322946,0.0002637,69.9995,255.9692,258.5954,101.4909,-1.4135e-05,-2.62e-06,0.0,0 STARLINK-5064,1 55428U 23014AP  24017.83754970 -.00000262  00000-0 -14135-4 0  9991,2 55428  69.9995 255.9692 0002637 258.5954 101.4909 14.98322946 53502,6950.215,96.107,573.912,570.247,0.0
55428.0,STARLINK-5064,PAYLOAD,2024-01-17 21:42:12,14.98322364,0.0002651,69.9994,255.8009,257.8892,102.197,-2.152e-05,-3.5e-06,0.0,0 STARLINK-5064,1 55428U 23014AP  24017.90431050 -.00000350  00000-0 -21520-4 0  9994,2 55428  69.9994 255.8009 0002651 257.8892 102.1970 14.98322364 54456,6950.217,96.107,573.924,570.239,0.0
55428.0,STARLINK-5064,PAYLOAD,2024-01-18 02:30:36,14.98322865,0.0002631,69.9994,255.296,258.5719,101.5145,-1.4905e-05,-2.71e-06,0.0,0 STARLINK-5064,1 55428U 23014AP  24018.10459085 -.00000271  00000-0 -14905-4 0  9996,2 55428  69.9994 255.2960 0002631 258.5719 101.5145 14.98322865 54486,6950.215,96.107,573.909,570.251,0.0
55428.0,STARLINK-5064,PAYLOAD,2024-01-18 20:08:04,14.9833163,0.0002767,69.9991,253.4441,263.986,96.0984,3.6162e-05,3.39e-06,0.0,0 STARLINK-5064,1 55428U 23014AP  24018.83894481  .00000339  00000-0  36162-4 0  9991,2 55428  69.9991 253.4441 0002767 263.9860  96.0984 14.98331630 53651,6950.188,96.107,573.976,570.13,0.0
55428.0,STARLINK-5064,PAYLOAD,2024-01-18 21:44:12,14.98331236,0.0002779,69.999,253.2756,263.9488,96.1355,3.043e-05,2.7e-06,0.0,0 STARLINK-5064,1 55428U 23014AP  24018.90570516  .00000270  00000-0  30430-4 0  9995,2 55428  69.9990 253.2756 0002779 263.9488  96.1355 14.98331236 54607,6950.189,96.107,573.986,570.123,0.0
